STARLINK-4372           
1 53233U 22084AW  26083.91138913  .00000867  00000+0  72003-4 0  9992
2 53233  97.6044 145.1224 0001975  77.9775 282.1671 15.01263675201603
STARLINK-4368           
1 53234U 22084AX  26083.91299447 -.00000692  00000+0 -49368-4 0  9999
2 53234  97.6041 145.1173 0001482  96.1411 263.9983 15.01261308202613
STARLINK-4056           
1 53242U 22086A   26083.54142520  .00000223  00000+0  32129-4 0  9993
2 53242  53.2159 132.4386 0001303  81.8877 278.2263 15.08833272203550
STARLINK-4047           
1 53243U 22086B   26083.84451346  .00001905  00000+0  13766-3 0  9999
2 53243  53.2160 135.7804 0000927  90.3230 269.7869 15.08855344203554
STARLINK-4125           
1 53244U 22086C   26083.87033759 -.00000753  00000+0 -29233-4 0  9996
2 53244  53.2159 136.0526 0001269  89.0553 271.0585 15.08837284203533
STARLINK-4131           
1 53246U 22086E   26083.40297541  .00000462  00000+0  47137-4 0  9996
2 53246  53.2175 138.0724 0001093  75.0784 285.0329 15.08824101202355
STARLINK-4061           
1 53247U 22086F   26083.42369269  .00000548  00000+0  52547-4 0  9992
2 53247  53.2170 133.1611 0001098  85.0339 275.0778 15.08830509203531
STARLINK-4135           
1 53248U 22086G   26083.54512214  .00000032  00000+0  20102-4 0  9996
2 53248  53.2172 132.5385 0001327  77.8758 282.2382 15.08834581203551
STARLINK-4128           
1 53249U 22086H   26083.81332614  .00002008  00000+0  14425-3 0  9996
2 53249  53.2162 126.2383 0001376  89.5449 270.5700 15.08836050203366
STARLINK-4059           
1 53250U 22086J   26083.81605303 -.00000874  00000+0 -36821-4 0  9992
2 53250  53.2164 126.2171 0001389  86.1617 273.9534 15.08830178203355
STARLINK-4129           
1 53251U 22086K   26083.80500508  .00001507  00000+0  11275-3 0  9990
2 53251  53.2164 126.2660 0001210  83.5582 276.5548 15.08836017203345
STARLINK-4132           
1 53252U 22086L   26083.80867896  .00001715  00000+0  12583-3 0  9991
2 53252  53.2164 126.2009 0001301  90.7694 269.3447 15.08838371203363
STARLINK-4133           
1 53253U 22086M   26083.53636741  .00000154  00000+0  27782-4 0  9999
2 53253  53.2157 127.4733 0001305  83.9152 276.1989 15.08833022203309
STARLINK-4134           
1 53254U 22086N   26083.80964811  .00001440  00000+0  10859-3 0  9997
2 53254  53.2166 126.2556 0001267  83.6694 276.4443 15.08832361203364
STARLINK-4142           
1 53255U 22086P   26083.52901991  .00001543  00000+0  11507-3 0  9992
2 53255  53.2163 127.5066 0001310  82.8019 277.3122 15.08822159203305
STARLINK-4147           
1 53256U 22086Q   26083.40020478  .00000870  00000+0  72749-4 0  9990
2 53256  53.2162 128.0836 0001386  88.4053 271.7098 15.08831885203282
