[{"OBJECT_NAME":"STARLINK-4372","OBJECT_ID":"2022-084AW","EPOCH":"2026-03-24T21:52:24.020832","MEAN_MOTION":15.01263675,"ECCENTRICITY":0.00019759,"INCLINATION":97.6044,"RA_OF_ASC_NODE":145.1224,"ARG_OF_PERICENTER":77.9775,"MEAN_ANOMALY":282.1671,"EPHEMERIS_TYPE":0,"CLASSIFICATION_TYPE":"U","NORAD_CAT_ID":53233,"ELEMENT_SET_NO":999,"REV_AT_EPOCH":20160,"BSTAR":7.2003358e-5,"MEAN_MOTION_DOT":8.67e-6,"MEAN_MOTION_DDOT":0},{"OBJECT_NAME":"STARLINK-4368","OBJECT_ID":"2022-084AX","EPOCH":"2026-03-24T21:54:42.722208","MEAN_MOTION":15.01261308,"ECCENTRICITY":0.00014826,"INCLINATION":97.6041,"RA_OF_ASC_NODE":145.1173,"ARG_OF_PERICENTER":96.1411,"MEAN_ANOMALY":263.9983,"EPHEMERIS_TYPE":0,"CLASSIFICATION_TYPE":"U","NORAD_CAT_ID":53234,"ELEMENT_SET_NO":999,"REV_AT_EPOCH":20261,"BSTAR":-4.936752e-5,"MEAN_MOTION_DOT":-6.92e-6,"MEAN_MOTION_DDOT":0},{"OBJECT_NAME":"STARLINK-4056","OBJECT_ID":"2022-086A","EPOCH":"2026-03-24T12:59:39.137280","MEAN_MOTION":15.08833272,"ECCENTRICITY":0.00013033,"INCLINATION":53.2159,"RA_OF_ASC_NODE":132.4386,"ARG_OF_PERICENTER":81.8877,"MEAN_ANOMALY":278.2263,"EPHEMERIS_TYPE":0,"CLASSIFICATION_TYPE":"U","NORAD_CAT_ID":53242,"ELEMENT_SET_NO":999,"REV_AT_EPOCH":20355,"BSTAR":3.2128873e-5,"MEAN_MOTION_DOT":2.23e-6,"MEAN_MOTION_DDOT":0},{"OBJECT_NAME":"STARLINK-4047","OBJECT_ID":"2022-086B","EPOCH":"2026-03-24T20:16:05.962944","MEAN_MOTION":15.08855344,"ECCENTRICITY":9.271e-5,"INCLINATION":53.216,"RA_OF_ASC_NODE":135.7804,"ARG_OF_PERICENTER":90.323,"MEAN_ANOMALY":269.7869,"EPHEMERIS_TYPE":0,"CLASSIFICATION_TYPE":"U","NORAD_CAT_ID":53243,"ELEMENT_SET_NO":999,"REV_AT_EPOCH":20355,"BSTAR":0.0001376647,"MEAN_MOTION_DOT":1.905e-5,"MEAN_MOTION_DDOT":0},{"OBJECT_NAME":"STARLINK-4125","OBJECT_ID":"2022-086C","EPOCH":"2026-03-24T20:53:17.167776","MEAN_MOTION":15.08837284,"ECCENTRICITY":0.00012695,"INCLINATION":53.2159,"RA_OF_ASC_NODE":136.0526,"ARG_OF_PERICENTER":89.0553,"MEAN_ANOMALY":271.0585,"EPHEMERIS_TYPE":0,"CLASSIFICATION_TYPE":"U","NORAD_CAT_ID":53244,"ELEMENT_SET_NO":999,"REV_AT_EPOCH":20353,"BSTAR":-2.9233037e-5,"MEAN_MOTION_DOT":-7.53e-6,"MEAN_MOTION_DDOT":0},{"OBJECT_NAME":"STARLINK-4131","OBJECT_ID":"2022-086E","EPOCH":"2026-03-24T09:40:17.075424","MEAN_MOTION":15.08824101,"ECCENTRICITY":0.00010935,"INCLINATION":53.2175,"RA_OF_ASC_NODE":138.0724,"ARG_OF_PERICENTER":75.0784,"MEAN_ANOMALY":285.0329,"EPHEMERIS_TYPE":0,"CLASSIFICATION_TYPE":"U","NORAD_CAT_ID":53246,"ELEMENT_SET_NO":999,"REV_AT_EPOCH":20235,"BSTAR":4.7136652e-5,"MEAN_MOTION_DOT":4.62e-6,"MEAN_MOTION_DDOT":0},{"OBJECT_NAME":"STARLINK-4061","OBJECT_ID":"2022-086F","EPOCH":"2026-03-24T10:10:07.048416","MEAN_MOTION":15.08830509,"ECCENTRICITY":0.00010986,"INCLINATION":53.217,"RA_OF_ASC_NODE":133.1611,"ARG_OF_PERICENTER":85.0339,"MEAN_ANOMALY":275.0778,"EPHEMERIS_TYPE":0,"CLASSIFICATION_TYPE":"U","NORAD_CAT_ID":53247,"ELEMENT_SET_NO":999,"REV_AT_EPOCH":20353,"BSTAR":5.2546686e-5,"MEAN_MOTION_DOT":5.48e-6,"MEAN_MOTION_DDOT":0},{"OBJECT_NAME":"STARLINK-4135","OBJECT_ID":"2022-086G","EPOCH":"2026-03-24T13:04:58.552896","MEAN_MOTION":15.08834581,"ECCENTRICITY":0.00013276,"INCLINATION":53.2172,"RA_OF_ASC_NODE":132.5385,"ARG_OF_PERICENTER":77.8758,"MEAN_ANOMALY":282.2382,"EPHEMERIS_TYPE":0,"CLASSIFICATION_TYPE":"U","NORAD_CAT_ID":53248,"ELEMENT_SET_NO":999,"REV_AT_EPOCH":20355,"BSTAR":2.0102079e-5,"MEAN_MOTION_DOT":3.2e-7,"MEAN_MOTION_DDOT":0},{"OBJECT_NAME":"STARLINK-4128","OBJECT_ID":"2022-086H","EPOCH":"2026-03-24T19:31:11.378496","MEAN_MOTION":15.0883605,"ECCENTRICITY":0.00013761,"INCLINATION":53.2162,"RA_OF_ASC_NODE":126.2383,"ARG_OF_PERICENTER":89.5449,"MEAN_ANOMALY":270.57,"EPHEMERIS_TYPE":0,"CLASSIFICATION_TYPE":"U","NORAD_CAT_ID":53249,"ELEMENT_SET_NO":999,"REV_AT_EPOCH":20336,"BSTAR":0.00014425093,"MEAN_MOTION_DOT":2.008e-5,"MEAN_MOTION_DDOT":0},{"OBJECT_NAME":"STARLINK-4059","OBJECT_ID":"2022-086J","EPOCH":"2026-03-24T19:35:06.981792","MEAN_MOTION":15.08830178,"ECCENTRICITY":0.00013896,"INCLINATION":53.2164,"RA_OF_ASC_NODE":126.2171,"ARG_OF_PERICENTER":86.1617,"MEAN_ANOMALY":273.9534,"EPHEMERIS_TYPE":0,"CLASSIFICATION_TYPE":"U","NORAD_CAT_ID":53250,"ELEMENT_SET_NO":999,"REV_AT_EPOCH":20335,"BSTAR":-3.6820722e-5,"MEAN_MOTION_DOT":-8.74e-6,"MEAN_MOTION_DDOT":0},{"OBJECT_NAME":"STARLINK-4129","OBJECT_ID":"2022-086K","EPOCH":"2026-03-24T19:19:12.438912","MEAN_MOTION":15.08836017,"ECCENTRICITY":0.00012107,"INCLINATION":53.2164,"RA_OF_ASC_NODE":126.266,"ARG_OF_PERICENTER":83.5582,"MEAN_ANOMALY":276.5548,"EPHEMERIS_TYPE":0,"CLASSIFICATION_TYPE":"U","NORAD_CAT_ID":53251,"ELEMENT_SET_NO":999,"REV_AT_EPOCH":20334,"BSTAR":0.00011274933,"MEAN_MOTION_DOT":1.507e-5,"MEAN_MOTION_DDOT":0},{"OBJECT_NAME":"STARLINK-4132","OBJECT_ID":"2022-086L","EPOCH":"2026-03-24T19:24:29.862144","MEAN_MOTION":15.08838371,"ECCENTRICITY":0.0001301,"INCLINATION":53.2164,"RA_OF_ASC_NODE":126.2009,"ARG_OF_PERICENTER":90.7694,"MEAN_ANOMALY":269.3447,"EPHEMERIS_TYPE":0,"CLASSIFICATION_TYPE":"U","NORAD_CAT_ID":53252,"ELEMENT_SET_NO":999,"REV_AT_EPOCH":20336,"BSTAR":0.00012583474,"MEAN_MOTION_DOT":1.715e-5,"MEAN_MOTION_DDOT":0},{"OBJECT_NAME":"STARLINK-4133","OBJECT_ID":"2022-086M","EPOCH":"2026-03-24T12:52:22.144224","MEAN_MOTION":15.08833022,"ECCENTRICITY":0.00013057,"INCLINATION":53.2157,"RA_OF_ASC_NODE":127.4733,"ARG_OF_PERICENTER":83.9152,"MEAN_ANOMALY":276.1989,"EPHEMERIS_TYPE":0,"CLASSIFICATION_TYPE":"U","NORAD_CAT_ID":53253,"ELEMENT_SET_NO":999,"REV_AT_EPOCH":20330,"BSTAR":2.7782465e-5,"MEAN_MOTION_DOT":1.54e-6,"MEAN_MOTION_DDOT":0},{"OBJECT_NAME":"STARLINK-4134","OBJECT_ID":"2022-086N","EPOCH":"2026-03-24T19:25:53.596704","MEAN_MOTION":15.08832361,"ECCENTRICITY":0.00012679,"INCLINATION":53.2166,"RA_OF_ASC_NODE":126.2556,"ARG_OF_PERICENTER":83.6694,"MEAN_ANOMALY":276.4443,"EPHEMERIS_TYPE":0,"CLASSIFICATION_TYPE":"U","NORAD_CAT_ID":53254,"ELEMENT_SET_NO":999,"REV_AT_EPOCH":20336,"BSTAR":0.00010858817,"MEAN_MOTION_DOT":1.44e-5,"MEAN_MOTION_DDOT":0},{"OBJECT_NAME":"STARLINK-4142","OBJECT_ID":"2022-086P","EPOCH":"2026-03-24T12:41:47.320224","MEAN_MOTION":15.08822159,"ECCENTRICITY":0.00013107,"INCLINATION":53.2163,"RA_OF_ASC_NODE":127.5066,"ARG_OF_PERICENTER":82.8019,"MEAN_ANOMALY":277.3122,"EPHEMERIS_TYPE":0,"CLASSIFICATION_TYPE":"U","NORAD_CAT_ID":53255,"ELEMENT_SET_NO":999,"REV_AT_EPOCH":20330,"BSTAR":0.00011507356,"MEAN_MOTION_DOT":1.543e-5,"MEAN_MOTION_DDOT":0},{"OBJECT_NAME":"STARLINK-4147","OBJECT_ID":"2022-086Q","EPOCH":"2026-03-24T09:36:17.692992","MEAN_MOTION":15.08831885,"ECCENTRICITY":0.00013862,"INCLINATION":53.2162,"RA_OF_ASC_NODE":128.0836,"ARG_OF_PERICENTER":88.4053,"MEAN_ANOMALY":271.7098,"EPHEMERIS_TYPE":0,"CLASSIFICATION_TYPE":"U","NORAD_CAT_ID":53256,"ELEMENT_SET_NO":999,"REV_AT_EPOCH":20328,"BSTAR":7.2749207e-5,"MEAN_MOTION_DOT":8.7e-6,"MEAN_MOTION_DDOT":0}]
